{
  "type": "FeatureCollection",
  "features": [
    {
      "type": "Feature",
      "properties": {
        "way_index": 0,
        "extra_fields": [
          [
            10.51
          ],
          [
            -16.55
          ],
          [
            136.9
          ],
          [
            122.04
          ],
          [
            6.07
          ],
          [
            2.95
          ],
          [
            3.15
          ],
          [
            -113.29
          ],
          [
            -306.9
          ],
          [
            158.15
          ],
          [
            107.32
          ],
          [
            3.87
          ],
          [
            6.22
          ],
          [
            6.47
          ]
        ]
      },
      "geometry": {
        "type": "LineString",
        "coordinates": [
          [
            8.638222,
            46.830412,
            459.0
          ],
          [
            8.637965,
            46.830804,
            458.5
          ],
          [
            8.635828,
            46.83357,
            473.6
          ],
          [
            8.63576,
            46.834027,
            457.5
          ],
          [
            8.636322,
            46.838276,
            456.0
          ],
          [
            8.634318,
            46.843204,
            454.0
          ],
          [
            8.632105,
            46.84547,
            453.0
          ],
          [
            8.631669,
            46.846065,
            453.0
          ],
          [
            8.631049,
            46.847207,
            486.9
          ],
          [
            8.631071,
            46.848073,
            497.0
          ],
          [
            8.631733,
            46.849866,
            451.5
          ],
          [
            8.633143,
            46.854685,
            449.5
          ],
          [
            8.635002,
            46.861289,
            446.5
          ],
          [
            8.632711,
            46.863515,
            445.0
          ]
        ]
      }
    },
    {
      "type": "Feature",
      "properties": {
        "way_index": 1,
        "extra_fields": [
          [
            78.36
          ],
          [
            6.92
          ],
          [
            2.16
          ],
          [
            11.45
          ],
          [
            0.61
          ],
          [
            1.31
          ],
          [
            5.84
          ],
          [
            5.98
          ],
          [
            7.28
          ],
          [
            6.07
          ],
          [
            4.71
          ],
          [
            23.65
          ],
          [
            4.71
          ],
          [
            -13.59
          ],
          [
            50.88
          ],
          [
            102.48
          ]
        ]
      },
      "geometry": {
        "type": "LineString",
        "coordinates": [
          [
            8.667763,
            46.766849,
            528.5
          ],
          [
            8.670014,
            46.76881,
            523.6
          ],
          [
            8.669319,
            46.77207,
            513.7
          ],
          [
            8.666077,
            46.776005,
            509.0
          ],
          [
            8.668259,
            46.783357,
            498.9
          ],
          [
            8.665862,
            46.789208,
            493.9
          ],
          [
            8.664646,
            46.798908,
            487.2
          ],
          [
            8.661257,
            46.805334,
            479.0
          ],
          [
            8.662264,
            46.807992,
            477.5
          ],
          [
            8.657162,
            46.812882,
            473.5
          ],
          [
            8.650792,
            46.816889,
            469.5
          ],
          [
            8.64711,
            46.817114,
            468.0
          ],
          [
            8.644696,
            46.82427,
            463.0
          ],
          [
            8.639728,
            46.827295,
            460.0
          ],
          [
            8.638463,
            46.830023,
            463.8
          ],
          [
            8.638222,
            46.830412,
            459.0
          ]
        ]
      }
    },
    {
      "type": "Feature",
      "properties": {
        "way_index": 2,
        "extra_fields": [
          [
            0.0
          ],
          [
            1.95
          ],
          [
            4.07
          ],
          [
            1.51
          ],
          [
            0.0
          ]
        ]
      },
      "geometry": {
        "type": "LineString",
        "coordinates": [
          [
            8.309109,
            47.051842,
            433.5
          ],
          [
            8.304765,
            47.0512,
            432.5
          ],
          [
            8.300029,
            47.052675,
            431.5
          ],
          [
            8.29727,
            47.054438,
            431.0
          ],
          [
            8.296715,
            47.054634,
            431.0
          ]
        ]
      }
    },
    {
      "type": "Feature",
      "properties": {
        "way_index": 3,
        "extra_fields": [
          [
            0.0
          ],
          [
            0.0
          ],
          [
            0.0
          ]
        ]
      },
      "geometry": {
        "type": "LineString",
        "coordinates": [
          [
            8.287035,
            47.059872,
            431.0
          ],
          [
            8.285443,
            47.063708,
            431.0
          ],
          [
            8.286271,
            47.065785,
            430.5
          ]
        ]
      }
    },
    {
      "type": "Feature",
      "properties": {
        "way_index": 4,
        "extra_fields": [
          [
            194.03
          ],
          [
            22.13
          ],
          [
            46.32
          ],
          [
            -37.82
          ],
          [
            51.32
          ],
          [
            61.91
          ],
          [
            71.45
          ],
          [
            170.89
          ],
          [
            83.9
          ],
          [
            8.2
          ],
          [
            9.3
          ],
          [
            159.98
          ],
          [
            68.33
          ],
          [
            67.53
          ],
          [
            144.2
          ],
          [
            9.9
          ],
          [
            1.4
          ]
        ]
      },
      "geometry": {
        "type": "LineString",
        "coordinates": [
          [
            8.592529,
            46.667563,
            1079.2
          ],
          [
            8.594514,
            46.669095,
            1051.0
          ],
          [
            8.594225,
            46.671355,
            1026.6
          ],
          [
            8.594688,
            46.674375,
            1019.5
          ],
          [
            8.594505,
            46.675058,
            1027.2
          ],
          [
            8.593978,
            46.678205,
            996.0
          ],
          [
            8.594711,
            46.68108,
            988.6
          ],
          [
            8.592807,
            46.684187,
            975.8
          ],
          [
            8.592706,
            46.687576,
            951.2
          ],
          [
            8.594913,
            46.693949,
            911.7
          ],
          [
            8.597022,
            46.697219,
            905.3
          ],
          [
            8.599385,
            46.698385,
            895.7
          ],
          [
            8.598306,
            46.699827,
            872.6
          ],
          [
            8.603763,
            46.705328,
            854.1
          ],
          [
            8.604793,
            46.709006,
            832.3
          ],
          [
            8.607592,
            46.71136,
            822.3
          ],
          [
            8.608339,
            46.712172,
            822.1
          ]
        ]
      }
    },
    {
      "type": "Feature",
      "properties": {
        "way_index": 5,
        "extra_fields": [
          [
            -26.05
          ],
          [
            0.0
          ]
        ]
      },
      "geometry": {
        "type": "LineString",
        "coordinates": [
          [
            8.610764,
            46.715046,
            810.2
          ],
          [
            8.610782,
            46.715677,
            811.4
          ]
        ]
      }
    },
    {
      "type": "Feature",
      "properties": {
        "way_index": 6,
        "extra_fields": [
          [
            7.01
          ],
          [
            16.19
          ],
          [
            0.0
          ],
          [
            353.67
          ],
          [
            -1539.48
          ],
          [
            1557.04
          ],
          [
            369.75
          ],
          [
            73.51
          ],
          [
            -16.44
          ],
          [
            200.84
          ],
          [
            279.85
          ],
          [
            31.28
          ],
          [
            157.5
          ],
          [
            184.1
          ],
          [
            57.51
          ],
          [
            -79.5
          ]
        ]
      },
      "geometry": {
        "type": "LineString",
        "coordinates": [
          [
            8.586265,
            46.637895,
            1431.2
          ],
          [
            8.59084,
            46.642649,
            1430.4
          ],
          [
            8.590244,
            46.645477,
            1436.5
          ],
          [
            8.589845,
            46.64613,
            1444.0
          ],
          [
            8.589883,
            46.646945,
            1432.1
          ],
          [
            8.589844,
            46.647029,
            1448.7
          ],
          [
            8.591629,
            46.648198,
            1385.3
          ],
          [
            8.588114,
            46.650342,
            1322.6
          ],
          [
            8.585656,
            46.651842,
            1290.3
          ],
          [
            8.584995,
            46.652244,
            1304.0
          ],
          [
            8.583526,
            46.656284,
            1234.6
          ],
          [
            8.584369,
            46.658777,
            1174.7
          ],
          [
            8.585349,
            46.660575,
            1185.7
          ],
          [
            8.586447,
            46.661614,
            1142.4
          ],
          [
            8.587716,
            46.662338,
            1124.9
          ],
          [
            8.588429,
            46.663368,
            1131.6
          ]
        ]
      }
    },
    {
      "type": "Feature",
      "properties": {
        "way_index": 7,
        "extra_fields": [
          [
            -12.84
          ],
          [
            46.97
          ],
          [
            61.8
          ],
          [
            16.08
          ],
          [
            25.38
          ],
          [
            22.12
          ],
          [
            1.74
          ],
          [
            12.89
          ],
          [
            -69.23
          ],
          [
            21.14
          ],
          [
            123.06
          ],
          [
            62.94
          ],
          [
            -4.5
          ],
          [
            15.64
          ],
          [
            117.27
          ],
          [
            19.83
          ],
          [
            -4.21
          ],
          [
            90.96
          ],
          [
            90.23
          ],
          [
            44.64
          ],
          [
            -1.2
          ],
          [
            -56.66
          ],
          [
            271.57
          ],
          [
            272.08
          ],
          [
            -50.72
          ],
          [
            121.79
          ],
          [
            -15.86
          ]
        ]
      },
      "geometry": {
        "type": "LineString",
        "coordinates": [
          [
            8.610782,
            46.715677,
            811.4
          ],
          [
            8.613158,
            46.718163,
            775.2
          ],
          [
            8.615686,
            46.719431,
            774.4
          ],
          [
            8.618233,
            46.723645,
            747.2
          ],
          [
            8.620375,
            46.726764,
            738.1
          ],
          [
            8.624752,
            46.730713,
            726.1
          ],
          [
            8.628808,
            46.732419,
            710.5
          ],
          [
            8.6325,
            46.735405,
            695.0
          ],
          [
            8.637459,
            46.739632,
            693.9
          ],
          [
            8.638481,
            46.739819,
            705.5
          ],
          [
            8.639507,
            46.740422,
            680.9
          ],
          [
            8.640033,
            46.742717,
            684.1
          ],
          [
            8.64321,
            46.744929,
            669.8
          ],
          [
            8.642953,
            46.747135,
            644.9
          ],
          [
            8.645011,
            46.753968,
            632.4
          ],
          [
            8.647093,
            46.755052,
            626.7
          ],
          [
            8.647043,
            46.756215,
            613.7
          ],
          [
            8.64756,
            46.757434,
            616.6
          ],
          [
            8.650522,
            46.759279,
            584.9
          ],
          [
            8.653066,
            46.759288,
            567.0
          ],
          [
            8.655605,
            46.759759,
            583.5
          ],
          [
            8.659959,
            46.762608,
            591.8
          ],
          [
            8.660508,
            46.763824,
            590.1
          ],
          [
            8.660446,
            46.764588,
            550.5
          ],
          [
            8.660672,
            46.764968,
            558.0
          ],
          [
            8.662764,
            46.765564,
            531.8
          ],
          [
            8.667763,
            46.766849,
            528.5
          ]
        ]
      }
    },
    {
      "type": "Feature",
      "properties": {
        "way_index": 8,
        "extra_fields": [
          [
            0.0
          ],
          [
            0.0
          ]
        ]
      },
      "geometry": {
        "type": "LineString",
        "coordinates": [
          [
            8.608339,
            46.712172,
            822.1
          ],
          [
            8.60864,
            46.712476,
            822.1
          ]
        ]
      }
    },
    {
      "type": "Feature",
      "properties": {
        "way_index": 9,
        "extra_fields": [
          [
            0.0
          ],
          [
            0.0
          ],
          [
            0.0
          ],
          [
            1.59
          ],
          [
            0.0
          ]
        ]
      },
      "geometry": {
        "type": "LineString",
        "coordinates": [
          [
            8.33755,
            47.338961,
            377.0
          ],
          [
            8.336966,
            47.343106,
            377.0
          ],
          [
            8.338831,
            47.344134,
            377.0
          ],
          [
            8.34075,
            47.341779,
            376.5
          ],
          [
            8.341476,
            47.341259,
            376.5
          ]
        ]
      }
    },
    {
      "type": "Feature",
      "properties": {
        "way_index": 10,
        "extra_fields": [
          [
            0.0
          ],
          [
            0.0
          ],
          [
            0.0
          ],
          [
            0.68
          ],
          [
            0.68
          ],
          [
            0.0
          ],
          [
            1.75
          ],
          [
            1.75
          ],
          [
            0.0
          ],
          [
            0.0
          ],
          [
            0.0
          ],
          [
            1.61
          ]
        ]
      },
      "geometry": {
        "type": "LineString",
        "coordinates": [
          [
            8.374977,
            47.303466,
            380.0
          ],
          [
            8.376901,
            47.310278,
            379.5
          ],
          [
            8.37767,
            47.313306,
            379.5
          ],
          [
            8.377166,
            47.314412,
            379.5
          ],
          [
            8.374337,
            47.317114,
            379.0
          ],
          [
            8.373674,
            47.320958,
            379.0
          ],
          [
            8.373132,
            47.323582,
            379.0
          ],
          [
            8.372033,
            47.324636,
            378.5
          ],
          [
            8.363846,
            47.329406,
            378.5
          ],
          [
            8.354739,
            47.330366,
            378.0
          ],
          [
            8.344876,
            47.336265,
            377.5
          ],
          [
            8.33755,
            47.338961,
            377.0
          ]
        ]
      }
    },
    {
      "type": "Feature",
      "properties": {
        "way_index": 11,
        "extra_fields": [
          [
            3.49
          ],
          [
            5.61
          ],
          [
            1.75
          ],
          [
            4.54
          ],
          [
            0.0
          ]
        ]
      },
      "geometry": {
        "type": "LineString",
        "coordinates": [
          [
            8.345858,
            47.344586,
            370.5
          ],
          [
            8.345072,
            47.347901,
            369.0
          ],
          [
            8.342446,
            47.349918,
            367.5
          ],
          [
            8.336852,
            47.350885,
            365.5
          ],
          [
            8.333466,
            47.353191,
            364.0
          ]
        ]
      }
    },
    {
      "type": "Feature",
      "properties": {
        "way_index": 12,
        "extra_fields": [
          [
            0.0
          ],
          [
            0.0
          ],
          [
            0.0
          ],
          [
            0.0
          ],
          [
            25.44
          ],
          [
            2.74
          ],
          [
            1.75
          ],
          [
            2.16
          ],
          [
            2.36
          ],
          [
            3.04
          ],
          [
            3.49
          ],
          [
            2.58
          ],
          [
            2.43
          ],
          [
            2.17
          ],
          [
            2.39
          ],
          [
            2.09
          ],
          [
            2.55
          ],
          [
            1.19
          ],
          [
            1.3
          ],
          [
            0.0
          ],
          [
            0.0
          ]
        ]
      },
      "geometry": {
        "type": "LineString",
        "coordinates": [
          [
            8.288649,
            47.067053,
            430.5
          ],
          [
            8.290607,
            47.068204,
            430.5
          ],
          [
            8.29682,
            47.071857,
            430.5
          ],
          [
            8.300698,
            47.07396,
            430.5
          ],
          [
            8.302431,
            47.075149,
            428.0
          ],
          [
            8.311471,
            47.080951,
            425.0
          ],
          [
            8.32042,
            47.085908,
            423.0
          ],
          [
            8.328155,
            47.091017,
            421.5
          ],
          [
            8.33249,
            47.093154,
            420.5
          ],
          [
            8.337242,
            47.09692,
            419.5
          ],
          [
            8.346996,
            47.101843,
            417.5
          ],
          [
            8.351236,
            47.108393,
            415.0
          ],
          [
            8.355305,
            47.112946,
            413.5
          ],
          [
            8.359096,
            47.115878,
            412.5
          ],
          [
            8.361811,
            47.117108,
            412.0
          ],
          [
            8.369908,
            47.118358,
            410.5
          ],
          [
            8.380335,
            47.117411,
            409.0
          ],
          [
            8.386494,
            47.117329,
            408.0
          ],
          [
            8.390863,
            47.11932,
            407.0
          ],
          [
            8.395006,
            47.122942,
            406.5
          ],
          [
            8.395698,
            47.123946,
            406.5
          ]
        ]
      }
    },
    {
      "type": "Feature",
      "properties": {
        "way_index": 13,
        "extra_fields": [
          [
            39.98
          ],
          [
            120.98
          ],
          [
            0.0
          ]
        ]
      },
      "geometry": {
        "type": "LineString",
        "coordinates": [
          [
            8.60864,
            46.712476,
            822.1
          ],
          [
            8.61073,
            46.714723,
            810.6
          ],
          [
            8.610764,
            46.715046,
            810.2
          ]
        ]
      }
    },
    {
      "type": "Feature",
      "properties": {
        "way_index": 14,
        "extra_fields": [
          [
            0.0
          ],
          [
            0.0
          ],
          [
            0.0
          ],
          [
            0.0
          ],
          [
            0.0
          ],
          [
            0.0
          ],
          [
            0.0
          ],
          [
            0.0
          ],
          [
            0.0
          ],
          [
            0.0
          ],
          [
            0.0
          ],
          [
            0.0
          ],
          [
            0.0
          ],
          [
            0.0
          ],
          [
            0.0
          ],
          [
            0.0
          ],
          [
            0.0
          ],
          [
            0.0
          ],
          [
            0.0
          ],
          [
            0.0
          ],
          [
            0.0
          ],
          [
            0.0
          ],
          [
            0.0
          ]
        ]
      },
      "geometry": {
        "type": "LineString",
        "coordinates": [
          [
            8.613181,
            46.899428,
            433.5
          ],
          [
            8.60545,
            46.917675,
            433.5
          ],
          [
            8.604356,
            46.921963,
            433.5
          ],
          [
            8.601615,
            46.932701,
            433.5
          ],
          [
            8.603028,
            46.95282,
            433.5
          ],
          [
            8.603835,
            46.976375,
            433.5
          ],
          [
            8.602221,
            46.986703,
            433.5
          ],
          [
            8.591119,
            46.991247,
            433.5
          ],
          [
            8.578403,
            46.991384,
            433.5
          ],
          [
            8.543888,
            46.98271,
            433.5
          ],
          [
            8.513814,
            46.98271,
            433.5
          ],
          [
            8.49484,
            46.98271,
            433.5
          ],
          [
            8.476271,
            46.989594,
            433.5
          ],
          [
            8.46961,
            46.994138,
            433.5
          ],
          [
            8.46739,
            47.00226,
            433.5
          ],
          [
            8.466179,
            47.005701,
            433.5
          ],
          [
            8.437063,
            47.013097,
            433.5
          ],
          [
            8.380544,
            47.017379,
            433.5
          ],
          [
            8.350164,
            47.031951,
            433.5
          ],
          [
            8.330588,
            47.047005,
            433.5
          ],
          [
            8.329611,
            47.047756,
            433.5
          ],
          [
            8.313697,
            47.052618,
            433.5
          ],
          [
            8.309256,
            47.051866,
            433.5
          ]
        ]
      }
    },
    {
      "type": "Feature",
      "properties": {
        "way_index": 15,
        "extra_fields": [
          [
            0.0
          ],
          [
            0.0
          ],
          [
            0.0
          ],
          [
            0.0
          ],
          [
            0.0
          ]
        ]
      },
      "geometry": {
        "type": "LineString",
        "coordinates": [
          [
            8.283291,
            47.410626,
            345.0
          ],
          [
            8.276994,
            47.417082,
            344.0
          ],
          [
            8.268052,
            47.422068,
            343.5
          ],
          [
            8.263275,
            47.422124,
            343.5
          ],
          [
            8.262753,
            47.422299,
            343.5
          ]
        ]
      }
    },
    {
      "type": "Feature",
      "properties": {
        "way_index": 16,
        "extra_fields": [
          [
            7.08
          ],
          [
            2.65
          ],
          [
            1.38
          ],
          [
            0.0
          ],
          [
            0.0
          ],
          [
            2.38
          ]
        ]
      },
      "geometry": {
        "type": "LineString",
        "coordinates": [
          [
            8.333466,
            47.353191,
            364.0
          ],
          [
            8.335292,
            47.356615,
            363.0
          ],
          [
            8.340316,
            47.355983,
            362.0
          ],
          [
            8.343309,
            47.353255,
            361.5
          ],
          [
            8.346822,
            47.353062,
            361.0
          ],
          [
            8.345609,
            47.357654,
            360.0
          ]
        ]
      }
    },
    {
      "type": "Feature",
      "properties": {
        "way_index": 17,
        "extra_fields": [
          [
            15.18
          ],
          [
            15.18
          ]
        ]
      },
      "geometry": {
        "type": "LineString",
        "coordinates": [
          [
            8.590491,
            46.666566,
            1082.6
          ],
          [
            8.591054,
            46.66737,
            1081.1
          ]
        ]
      }
    },
    {
      "type": "Feature",
      "properties": {
        "way_index": 18,
        "extra_fields": [
          [
            0.0
          ],
          [
            0.0
          ]
        ]
      },
      "geometry": {
        "type": "LineString",
        "coordinates": [
          [
            8.591054,
            46.66737,
            1081.1
          ],
          [
            8.591165,
            46.667507,
            1081.1
          ]
        ]
      }
    },
    {
      "type": "Feature",
      "properties": {
        "way_index": 19,
        "extra_fields": [
          [
            171.43
          ],
          [
            0.0
          ]
        ]
      },
      "geometry": {
        "type": "LineString",
        "coordinates": [
          [
            8.592207,
            46.667473,
            1081.5
          ],
          [
            8.592529,
            46.667563,
            1079.2
          ]
        ]
      }
    },
    {
      "type": "Feature",
      "properties": {
        "way_index": 20,
        "extra_fields": [
          [
            82.16
          ],
          [
            6.24
          ]
        ]
      },
      "geometry": {
        "type": "LineString",
        "coordinates": [
          [
            8.591247,
            46.667494,
            1081.1
          ],
          [
            8.592207,
            46.667473,
            1081.5
          ]
        ]
      }
    },
    {
      "type": "Feature",
      "properties": {
        "way_index": 21,
        "extra_fields": [
          [
            0.0
          ],
          [
            0.0
          ]
        ]
      },
      "geometry": {
        "type": "LineString",
        "coordinates": [
          [
            8.591165,
            46.667507,
            1081.1
          ],
          [
            8.591247,
            46.667494,
            1081.1
          ]
        ]
      }
    },
    {
      "type": "Feature",
      "properties": {
        "way_index": 22,
        "extra_fields": [
          [
            88.56
          ],
          [
            95.28
          ],
          [
            103.36
          ]
        ]
      },
      "geometry": {
        "type": "LineString",
        "coordinates": [
          [
            8.588836,
            46.663717,
            1116.1
          ],
          [
            8.590058,
            46.666073,
            1089.2
          ],
          [
            8.590491,
            46.666566,
            1082.6
          ]
        ]
      }
    },
    {
      "type": "Feature",
      "properties": {
        "way_index": 23,
        "extra_fields": [
          [
            312.76
          ],
          [
            312.76
          ]
        ]
      },
      "geometry": {
        "type": "LineString",
        "coordinates": [
          [
            8.588429,
            46.663368,
            1131.6
          ],
          [
            8.588836,
            46.663717,
            1116.1
          ]
        ]
      }
    },
    {
      "type": "Feature",
      "properties": {
        "way_index": 24,
        "extra_fields": [
          [
            0.0
          ],
          [
            11.16
          ],
          [
            1.7
          ],
          [
            1.12
          ],
          [
            1.12
          ],
          [
            2.57
          ]
        ]
      },
      "geometry": {
        "type": "LineString",
        "coordinates": [
          [
            8.632711,
            46.863515,
            445.0
          ],
          [
            8.629998,
            46.868175,
            443.0
          ],
          [
            8.624271,
            46.878084,
            439.0
          ],
          [
            8.624206,
            46.878197,
            439.0
          ],
          [
            8.613516,
            46.89699,
            434.0
          ],
          [
            8.613181,
            46.899428,
            433.5
          ]
        ]
      }
    },
    {
      "type": "Feature",
      "properties": {
        "way_index": 25,
        "extra_fields": [
          [
            0.0
          ],
          [
            0.0
          ]
        ]
      },
      "geometry": {
        "type": "LineString",
        "coordinates": [
          [
            8.286271,
            47.065785,
            430.5
          ],
          [
            8.288649,
            47.067053,
            430.5
          ]
        ]
      }
    },
    {
      "type": "Feature",
      "properties": {
        "way_index": 26,
        "extra_fields": [
          [
            0.0
          ],
          [
            0.0
          ],
          [
            0.0
          ]
        ]
      },
      "geometry": {
        "type": "LineString",
        "coordinates": [
          [
            8.296715,
            47.054634,
            431.0
          ],
          [
            8.288337,
            47.056231,
            431.0
          ],
          [
            8.287053,
            47.05978,
            431.0
          ]
        ]
      }
    },
    {
      "type": "Feature",
      "properties": {
        "way_index": 27,
        "extra_fields": [
          [
            0.0
          ],
          [
            0.0
          ]
        ]
      },
      "geometry": {
        "type": "LineString",
        "coordinates": [
          [
            8.309256,
            47.051866,
            433.5
          ],
          [
            8.309109,
            47.051842,
            433.5
          ]
        ]
      }
    },
    {
      "type": "Feature",
      "properties": {
        "way_index": 28,
        "extra_fields": [
          [
            0.0
          ],
          [
            0.0
          ]
        ]
      },
      "geometry": {
        "type": "LineString",
        "coordinates": [
          [
            8.287053,
            47.05978,
            431.0
          ],
          [
            8.287035,
            47.059872,
            431.0
          ]
        ]
      }
    },
    {
      "type": "Feature",
      "properties": {
        "way_index": 29,
        "extra_fields": [
          [
            0.0
          ],
          [
            0.0
          ],
          [
            51.02
          ]
        ]
      },
      "geometry": {
        "type": "LineString",
        "coordinates": [
          [
            8.341476,
            47.341259,
            376.5
          ],
          [
            8.344911,
            47.341943,
            376.5
          ],
          [
            8.345858,
            47.344586,
            370.5
          ]
        ]
      }
    },
    {
      "type": "Feature",
      "properties": {
        "way_index": 30,
        "extra_fields": [
          [
            0.0
          ],
          [
            1.53
          ],
          [
            0.5
          ],
          [
            0.0
          ],
          [
            1.8
          ],
          [
            0.0
          ],
          [
            11.39
          ],
          [
            6.39
          ]
        ]
      },
      "geometry": {
        "type": "LineString",
        "coordinates": [
          [
            8.257608,
            47.448905,
            340.0
          ],
          [
            8.255131,
            47.45223,
            339.5
          ],
          [
            8.251151,
            47.455821,
            339.0
          ],
          [
            8.245376,
            47.458698,
            338.5
          ],
          [
            8.236845,
            47.459333,
            337.5
          ],
          [
            8.227918,
            47.4591,
            336.5
          ],
          [
            8.227049,
            47.460523,
            336.0
          ],
          [
            8.207,
            47.482,
            354.0
          ]
        ]
      }
    },
    {
      "type": "Feature",
      "properties": {
        "way_index": 31,
        "extra_fields": [
          [
            4.74
          ],
          [
            0.0
          ],
          [
            1.86
          ],
          [
            0.0
          ],
          [
            1.09
          ],
          [
            0.0
          ],
          [
            0.76
          ],
          [
            0.76
          ],
          [
            0.0
          ]
        ]
      },
      "geometry": {
        "type": "LineString",
        "coordinates": [
          [
            8.253529,
            47.430634,
            342.5
          ],
          [
            8.24851,
            47.430843,
            342.0
          ],
          [
            8.248003,
            47.433321,
            341.5
          ],
          [
            8.249212,
            47.43593,
            341.5
          ],
          [
            8.249273,
            47.436274,
            341.5
          ],
          [
            8.24933,
            47.439705,
            341.0
          ],
          [
            8.255619,
            47.444286,
            340.5
          ],
          [
            8.256582,
            47.447198,
            340.0
          ],
          [
            8.257608,
            47.448905,
            340.0
          ]
        ]
      }
    },
    {
      "type": "Feature",
      "properties": {
        "way_index": 32,
        "extra_fields": [
          [
            0.0
          ],
          [
            0.0
          ],
          [
            2.45
          ],
          [
            0.0
          ]
        ]
      },
      "geometry": {
        "type": "LineString",
        "coordinates": [
          [
            8.262753,
            47.422299,
            343.5
          ],
          [
            8.261879,
            47.426255,
            343.0
          ],
          [
            8.261043,
            47.428934,
            343.0
          ],
          [
            8.253529,
            47.430634,
            342.5
          ]
        ]
      }
    },
    {
      "type": "Feature",
      "properties": {
        "way_index": 33,
        "extra_fields": [
          [
            0.0
          ],
          [
            1.99
          ],
          [
            1.41
          ],
          [
            0.0
          ],
          [
            2.33
          ],
          [
            0.76
          ],
          [
            4.75
          ],
          [
            4.71
          ],
          [
            0.0
          ],
          [
            4.15
          ],
          [
            1.25
          ],
          [
            0.0
          ],
          [
            0.0
          ]
        ]
      },
      "geometry": {
        "type": "LineString",
        "coordinates": [
          [
            8.227049,
            47.460523,
            336.0
          ],
          [
            8.231107,
            47.462739,
            335.5
          ],
          [
            8.23299,
            47.465287,
            335.0
          ],
          [
            8.231997,
            47.468667,
            334.5
          ],
          [
            8.2331,
            47.471278,
            334.0
          ],
          [
            8.229688,
            47.47614,
            333.0
          ],
          [
            8.225064,
            47.478827,
            332.0
          ],
          [
            8.225879,
            47.481172,
            330.5
          ],
          [
            8.233384,
            47.480382,
            329.5
          ],
          [
            8.235691,
            47.483409,
            329.0
          ],
          [
            8.239902,
            47.486661,
            328.0
          ],
          [
            8.237317,
            47.491579,
            327.5
          ],
          [
            8.237032,
            47.492432,
            327.5
          ]
        ]
      }
    },
    {
      "type": "Feature",
      "properties": {
        "way_index": 34,
        "extra_fields": [
          [
            3.96
          ],
          [
            2.72
          ],
          [
            1.46
          ],
          [
            2.09
          ],
          [
            0.0
          ]
        ]
      },
      "geometry": {
        "type": "LineString",
        "coordinates": [
          [
            8.395698,
            47.123946,
            406.5
          ],
          [
            8.396349,
            47.124998,
            406.0
          ],
          [
            8.39803,
            47.130653,
            405.5
          ],
          [
            8.39874,
            47.132126,
            405.0
          ],
          [
            8.405294,
            47.137465,
            404.0
          ]
        ]
      }
    },
    {
      "type": "Feature",
      "properties": {
        "way_index": 35,
        "extra_fields": [
          [
            2.06
          ],
          [
            0.82
          ],
          [
            1.33
          ],
          [
            0.64
          ],
          [
            2.54
          ],
          [
            3.27
          ],
          [
            0.69
          ],
          [
            2.15
          ],
          [
            1.96
          ],
          [
            0.79
          ],
          [
            2.04
          ],
          [
            0.69
          ],
          [
            0.69
          ],
          [
            0.47
          ],
          [
            1.71
          ],
          [
            2.48
          ]
        ]
      },
      "geometry": {
        "type": "LineString",
        "coordinates": [
          [
            8.405294,
            47.137465,
            404.0
          ],
          [
            8.411471,
            47.139965,
            403.0
          ],
          [
            8.41453,
            47.143641,
            402.5
          ],
          [
            8.414676,
            47.147833,
            402.0
          ],
          [
            8.411925,
            47.153647,
            401.0
          ],
          [
            8.412054,
            47.154531,
            400.5
          ],
          [
            8.415389,
            47.158923,
            400.0
          ],
          [
            8.415267,
            47.16444,
            399.0
          ],
          [
            8.413936,
            47.168294,
            398.0
          ],
          [
            8.411632,
            47.173687,
            397.0
          ],
          [
            8.409557,
            47.175409,
            396.5
          ],
          [
            8.408167,
            47.175769,
            396.5
          ],
          [
            8.403459,
            47.176466,
            396.0
          ],
          [
            8.402156,
            47.177054,
            395.5
          ],
          [
            8.400768,
            47.181798,
            395.0
          ],
          [
            8.400279,
            47.183587,
            394.5
          ]
        ]
      }
    },
    {
      "type": "Feature",
      "properties": {
        "way_index": 36,
        "extra_fields": [
          [
            0.0
          ],
          [
            1.95
          ],
          [
            0.83
          ],
          [
            2.33
          ],
          [
            2.59
          ],
          [
            3.27
          ],
          [
            1.52
          ],
          [
            2.16
          ],
          [
            0.64
          ],
          [
            1.13
          ],
          [
            1.1
          ],
          [
            0.0
          ],
          [
            0.0
          ]
        ]
      },
      "geometry": {
        "type": "LineString",
        "coordinates": [
          [
            8.400279,
            47.183587,
            394.5
          ],
          [
            8.401075,
            47.188825,
            394.0
          ],
          [
            8.404438,
            47.19302,
            393.0
          ],
          [
            8.405416,
            47.195844,
            392.5
          ],
          [
            8.402214,
            47.201305,
            392.0
          ],
          [
            8.402103,
            47.202176,
            391.5
          ],
          [
            8.400669,
            47.207908,
            391.0
          ],
          [
            8.40041,
            47.209386,
            390.5
          ],
          [
            8.400934,
            47.212893,
            390.0
          ],
          [
            8.400984,
            47.213227,
            390.0
          ],
          [
            8.40002,
            47.216416,
            389.5
          ],
          [
            8.397078,
            47.218834,
            389.0
          ],
          [
            8.396479,
            47.219956,
            389.0
          ]
        ]
      }
    },
    {
      "type": "Feature",
      "properties": {
        "way_index": 37,
        "extra_fields": [
          [
            0.82
          ],
          [
            0.41
          ],
          [
            0.88
          ],
          [
            0.0
          ],
          [
            0.49
          ],
          [
            0.49
          ],
          [
            0.74
          ],
          [
            0.0
          ],
          [
            0.0
          ]
        ]
      },
      "geometry": {
        "type": "LineString",
        "coordinates": [
          [
            8.396479,
            47.219956,
            389.0
          ],
          [
            8.394861,
            47.225348,
            388.5
          ],
          [
            8.394884,
            47.226497,
            388.5
          ],
          [
            8.397015,
            47.230384,
            388.0
          ],
          [
            8.399809,
            47.232724,
            388.0
          ],
          [
            8.404723,
            47.235853,
            387.5
          ],
          [
            8.407334,
            47.241732,
            387.0
          ],
          [
            8.410947,
            47.245765,
            386.5
          ],
          [
            8.410295,
            47.248195,
            386.5
          ]
        ]
      }
    },
    {
      "type": "Feature",
      "properties": {
        "way_index": 38,
        "extra_fields": [
          [
            6.2
          ],
          [
            0.76
          ],
          [
            0.0
          ],
          [
            0.0
          ]
        ]
      },
      "geometry": {
        "type": "LineString",
        "coordinates": [
          [
            8.395011,
            47.278038,
            382.5
          ],
          [
            8.393261,
            47.282753,
            381.5
          ],
          [
            8.392205,
            47.285417,
            381.5
          ],
          [
            8.391628,
            47.286479,
            381.5
          ]
        ]
      }
    },
    {
      "type": "Feature",
      "properties": {
        "way_index": 39,
        "extra_fields": [
          [
            0.0
          ],
          [
            0.0
          ],
          [
            0.84
          ],
          [
            0.0
          ],
          [
            0.0
          ]
        ]
      },
      "geometry": {
        "type": "LineString",
        "coordinates": [
          [
            8.401421,
            47.268164,
            383.5
          ],
          [
            8.402108,
            47.272953,
            383.0
          ],
          [
            8.4013,
            47.273769,
            383.0
          ],
          [
            8.395886,
            47.277156,
            382.5
          ],
          [
            8.395011,
            47.278038,
            382.5
          ]
        ]
      }
    },
    {
      "type": "Feature",
      "properties": {
        "way_index": 40,
        "extra_fields": [
          [
            2.38
          ],
          [
            1.24
          ],
          [
            0.0
          ],
          [
            2.07
          ],
          [
            3.45
          ],
          [
            2.64
          ],
          [
            2.42
          ]
        ]
      },
      "geometry": {
        "type": "LineString",
        "coordinates": [
          [
            8.410295,
            47.248195,
            386.5
          ],
          [
            8.406114,
            47.251849,
            386.0
          ],
          [
            8.403392,
            47.253884,
            385.5
          ],
          [
            8.402655,
            47.256391,
            385.0
          ],
          [
            8.404457,
            47.260587,
            384.5
          ],
          [
            8.401432,
            47.263654,
            384.5
          ],
          [
            8.401421,
            47.268164,
            383.5
          ]
        ]
      }
    },
    {
      "type": "Feature",
      "properties": {
        "way_index": 41,
        "extra_fields": [
          [
            0.0
          ],
          [
            0.0
          ]
        ]
      },
      "geometry": {
        "type": "LineString",
        "coordinates": [
          [
            8.3753,
            47.301286,
            380.0
          ],
          [
            8.374977,
            47.303466,
            380.0
          ]
        ]
      }
    },
    {
      "type": "Feature",
      "properties": {
        "way_index": 42,
        "extra_fields": [
          [
            4.48
          ],
          [
            0.0
          ]
        ]
      },
      "geometry": {
        "type": "LineString",
        "coordinates": [
          [
            8.391628,
            47.286479,
            381.5
          ],
          [
            8.388621,
            47.290008,
            381.0
          ]
        ]
      }
    },
    {
      "type": "Feature",
      "properties": {
        "way_index": 43,
        "extra_fields": [
          [
            0.0
          ],
          [
            1.27
          ],
          [
            0.0
          ],
          [
            1.36
          ],
          [
            0.0
          ]
        ]
      },
      "geometry": {
        "type": "LineString",
        "coordinates": [
          [
            8.388621,
            47.290008,
            381.0
          ],
          [
            8.384292,
            47.293687,
            380.5
          ],
          [
            8.382848,
            47.294499,
            380.5
          ],
          [
            8.377225,
            47.297404,
            380.5
          ],
          [
            8.3753,
            47.301286,
            380.0
          ]
        ]
      }
    },
    {
      "type": "Feature",
      "properties": {
        "way_index": 44,
        "extra_fields": [
          [
            1.32
          ],
          [
            1.78
          ],
          [
            2.12
          ],
          [
            0.0
          ],
          [
            0.0
          ],
          [
            1.91
          ],
          [
            0.0
          ],
          [
            0.0
          ]
        ]
      },
      "geometry": {
        "type": "LineString",
        "coordinates": [
          [
            8.345609,
            47.357654,
            360.0
          ],
          [
            8.343644,
            47.360804,
            359.5
          ],
          [
            8.339503,
            47.363697,
            358.5
          ],
          [
            8.335318,
            47.365223,
            358.0
          ],
          [
            8.335426,
            47.370818,
            357.5
          ],
          [
            8.332121,
            47.372111,
            357.5
          ],
          [
            8.329783,
            47.368217,
            357.0
          ],
          [
            8.328402,
            47.367593,
            357.0
          ]
        ]
      }
    },
    {
      "type": "Feature",
      "properties": {
        "way_index": 45,
        "extra_fields": [
          [
            0.0
          ],
          [
            3.13
          ],
          [
            0.0
          ],
          [
            2.71
          ],
          [
            0.0
          ],
          [
            0.0
          ]
        ]
      },
      "geometry": {
        "type": "LineString",
        "coordinates": [
          [
            8.328402,
            47.367593,
            357.0
          ],
          [
            8.324997,
            47.367933,
            356.5
          ],
          [
            8.324161,
            47.371138,
            356.5
          ],
          [
            8.325137,
            47.373506,
            356.5
          ],
          [
            8.328195,
            47.374974,
            356.0
          ],
          [
            8.327969,
            47.377295,
            356.0
          ]
        ]
      }
    },
    {
      "type": "Feature",
      "properties": {
        "way_index": 46,
        "extra_fields": [
          [
            4.98
          ],
          [
            1.35
          ],
          [
            0.0
          ]
        ]
      },
      "geometry": {
        "type": "LineString",
        "coordinates": [
          [
            8.305997,
            47.378472,
            354.0
          ],
          [
            8.307874,
            47.383133,
            352.5
          ],
          [
            8.307894,
            47.384256,
            352.0
          ]
        ]
      }
    },
    {
      "type": "Feature",
      "properties": {
        "way_index": 47,
        "extra_fields": [
          [
            0.0
          ],
          [
            0.77
          ],
          [
            1.24
          ],
          [
            0.0
          ],
          [
            1.11
          ],
          [
            0.0
          ]
        ]
      },
      "geometry": {
        "type": "LineString",
        "coordinates": [
          [
            8.327969,
            47.377295,
            356.0
          ],
          [
            8.324804,
            47.377372,
            356.0
          ],
          [
            8.318002,
            47.375076,
            355.5
          ],
          [
            8.312187,
            47.375192,
            355.0
          ],
          [
            8.306608,
            47.37711,
            354.0
          ],
          [
            8.305997,
            47.378472,
            354.0
          ]
        ]
      }
    },
    {
      "type": "Feature",
      "properties": {
        "way_index": 48,
        "extra_fields": [
          [
            0.0
          ],
          [
            0.79
          ],
          [
            2.56
          ],
          [
            1.92
          ]
        ]
      },
      "geometry": {
        "type": "LineString",
        "coordinates": [
          [
            8.294822,
            47.399526,
            347.5
          ],
          [
            8.29339,
            47.400092,
            347.5
          ],
          [
            8.287597,
            47.404638,
            346.5
          ],
          [
            8.283291,
            47.410626,
            345.0
          ]
        ]
      }
    },
    {
      "type": "Feature",
      "properties": {
        "way_index": 49,
        "extra_fields": [
          [
            76.32
          ],
          [
            4.76
          ],
          [
            1.27
          ],
          [
            5.16
          ]
        ]
      },
      "geometry": {
        "type": "LineString",
        "coordinates": [
          [
            8.302696,
            47.394021,
            357.2
          ],
          [
            8.298755,
            47.394936,
            348.5
          ],
          [
            8.297982,
            47.397667,
            348.0
          ],
          [
            8.294822,
            47.399526,
            347.5
          ]
        ]
      }
    },
    {
      "type": "Feature",
      "properties": {
        "way_index": 50,
        "extra_fields": [
          [
            0.0
          ],
          [
            1.04
          ],
          [
            5.68
          ],
          [
            -52.22
          ]
        ]
      },
      "geometry": {
        "type": "LineString",
        "coordinates": [
          [
            8.307894,
            47.384256,
            352.0
          ],
          [
            8.307209,
            47.392082,
            350.0
          ],
          [
            8.306458,
            47.393868,
            349.5
          ],
          [
            8.302696,
            47.394021,
            357.2
          ]
        ]
      }
    }
  ]
}